{
  "type": "FeatureCollection",
  "features": [
    {
      "type": "Feature",
      "properties": {
        "norad_id": 30232,
        "name": "FENGYUN 1C DEB",
        "group": "fengyun-1c-debris",
        "lat": 54.188679789081725,
        "lon": 18.61772778969773,
        "alt_km": 741.8839361093287,
        "timestamp": "2025-12-12T05:47:29.045740+00:00",
        "meta_object_name": "FENGYUN 1C DEB",
        "meta_object_id": "1999-025WR",
        "meta_epoch": "2025-12-12T00:59:44.312640",
        "meta_mean_motion": 14.63581338,
        "meta_eccentricity": 0.01360724,
        "meta_inclination": 98.6937,
        "meta_ra_of_asc_node": 186.1636,
        "meta_arg_of_pericenter": 351.968,
        "meta_mean_anomaly": 159.4762,
        "meta_ephemeris_type": 0,
        "meta_classification_type": "U",
        "meta_norad_cat_id": 30232,
        "meta_element_set_no": 999,
        "meta_rev_at_epoch": 99741,
        "meta_bstar": 0.0010557039,
        "meta_mean_motion_dot": 6.213e-05,
        "meta_mean_motion_ddot": 0,
        "tle_line1": "1 30232U 99025WR  25346.04148510  .00006213  00000+0  10557-2 0  9999",
        "tle_line2": "2 30232  98.6937 186.1636 0136072 351.9680 159.4762 14.63581338997412"
      },
      "geometry": {
        "type": "Point",
        "coordinates": [
          18.61772778969773,
          54.188679789081725
        ]
      }
    },
    {
      "type": "Feature",
      "properties": {
        "norad_id": 30234,
        "name": "FENGYUN 1C DEB",
        "group": "fengyun-1c-debris",
        "lat": 68.26625478499834,
        "lon": -160.5613420023944,
        "alt_km": 788.8308905714857,
        "timestamp": "2025-12-12T05:47:29.045750+00:00",
        "meta_object_name": "FENGYUN 1C DEB",
        "meta_object_id": "1999-025WT",
        "meta_epoch": "2025-12-12T00:30:06.668928",
        "meta_mean_motion": 14.16862617,
        "meta_eccentricity": 0.00670432,
        "meta_inclination": 98.6339,
        "meta_ra_of_asc_node": 356.8199,
        "meta_arg_of_pericenter": 77.2161,
        "meta_mean_anomaly": 348.7941,
        "meta_ephemeris_type": 0,
        "meta_classification_type": "U",
        "meta_norad_cat_id": 30234,
        "meta_element_set_no": 999,
        "meta_rev_at_epoch": 97446,
        "meta_bstar": 0.00047329759,
        "meta_mean_motion_dot": 9.28e-06,
        "meta_mean_motion_ddot": 0,
        "tle_line1": "1 30234U 99025WT  25346.02091052  .00000928  00000+0  47330-3 0  9994",
        "tle_line2": "2 30234  98.6339 356.8199 0067043  77.2161 348.7941 14.16862617974465"
      },
      "geometry": {
        "type": "Point",
        "coordinates": [
          -160.5613420023944,
          68.26625478499834
        ]
      }
    },
    {
      "type": "Feature",
      "properties": {
        "norad_id": 30235,
        "name": "FENGYUN 1C DEB",
        "group": "fengyun-1c-debris",
        "lat": 79.55232348299471,
        "lon": -52.21315138036259,
        "alt_km": 957.1082196999614,
        "timestamp": "2025-12-12T05:47:29.045761+00:00",
        "meta_object_name": "FENGYUN 1C DEB",
        "meta_object_id": "1999-025WU",
        "meta_epoch": "2025-12-12T00:31:56.751168",
        "meta_mean_motion": 14.08776443,
        "meta_eccentricity": 0.01533783,
        "meta_inclination": 98.7497,
        "meta_ra_of_asc_node": 4.2108,
        "meta_arg_of_pericenter": 240.5899,
        "meta_mean_anomaly": 173.7403,
        "meta_ephemeris_type": 0,
        "meta_classification_type": "U",
        "meta_norad_cat_id": 30235,
        "meta_element_set_no": 999,
        "meta_rev_at_epoch": 96883,
        "meta_bstar": 0.00046656163,
        "meta_mean_motion_dot": 8.53e-06,
        "meta_mean_motion_ddot": 0,
        "tle_line1": "1 30235U 99025WU  25346.02218462  .00000853  00000+0  46656-3 0  9998",
        "tle_line2": "2 30235  98.7497   4.2108 0153378 240.5899 173.7403 14.08776443968831"
      },
      "geometry": {
        "type": "Point",
        "coordinates": [
          -52.21315138036259,
          79.55232348299471
        ]
      }
    },
    {
      "type": "Feature",
      "properties": {
        "norad_id": 30237,
        "name": "FENGYUN 1C DEB",
        "group": "fengyun-1c-debris",
        "lat": -38.730945973711776,
        "lon": 96.13281616632796,
        "alt_km": 752.3917428922496,
        "timestamp": "2025-12-12T05:47:29.045771+00:00",
        "meta_object_name": "FENGYUN 1C DEB",
        "meta_object_id": "1999-025WW",
        "meta_epoch": "2025-12-11T20:32:38.219424",
        "meta_mean_motion": 14.4086964,
        "meta_eccentricity": 0.00139143,
        "meta_inclination": 98.8254,
        "meta_ra_of_asc_node": 88.5773,
        "meta_arg_of_pericenter": 307.6496,
        "meta_mean_anomaly": 175.607,
        "meta_ephemeris_type": 0,
        "meta_classification_type": "U",
        "meta_norad_cat_id": 30237,
        "meta_element_set_no": 999,
        "meta_rev_at_epoch": 97685,
        "meta_bstar": 0.0035774451,
        "meta_mean_motion_dot": 0.00011453,
        "meta_mean_motion_ddot": 0,
        "tle_line1": "1 30237U 99025WW  25345.85599791  .00011453  00000+0  35774-2 0  9993",
        "tle_line2": "2 30237  98.8254  88.5773 0013914 307.6496 175.6070 14.40869640976857"
      },
      "geometry": {
        "type": "Point",
        "coordinates": [
          96.13281616632796,
          -38.730945973711776
        ]
      }
    },
    {
      "type": "Feature",
      "properties": {
        "norad_id": 30239,
        "name": "FENGYUN 1C DEB",
        "group": "fengyun-1c-debris",
        "lat": -18.409690947058966,
        "lon": 138.10906687986213,
        "alt_km": 1170.5082723784008,
        "timestamp": "2025-12-12T05:47:29.045781+00:00",
        "meta_object_name": "FENGYUN 1C DEB",
        "meta_object_id": "1999-025WY",
        "meta_epoch": "2025-12-11T08:47:04.200576",
        "meta_mean_motion": 11.38099167,
        "meta_eccentricity": 0.13466863,
        "meta_inclination": 99.5827,
        "meta_ra_of_asc_node": 134.2999,
        "meta_arg_of_pericenter": 32.9446,
        "meta_mean_anomaly": 334.8656,
        "meta_ephemeris_type": 0,
        "meta_classification_type": "U",
        "meta_norad_cat_id": 30239,
        "meta_element_set_no": 999,
        "meta_rev_at_epoch": 54519,
        "meta_bstar": 0.02191781,
        "meta_mean_motion_dot": 7.285e-05,
        "meta_mean_motion_ddot": 0,
        "tle_line1": "1 30239U 99025WY  25345.36602084  .00007285  00000+0  21918-1 0  9993",
        "tle_line2": "2 30239  99.5827 134.2999 1346686  32.9446 334.8656 11.38099167545192"
      },
      "geometry": {
        "type": "Point",
        "coordinates": [
          138.10906687986213,
          -18.409690947058966
        ]
      }
    },
    {
      "type": "Feature",
      "properties": {
        "norad_id": 30241,
        "name": "FENGYUN 1C DEB",
        "group": "fengyun-1c-debris",
        "lat": -53.838892025843336,
        "lon": 131.8516021406715,
        "alt_km": 945.2451763019826,
        "timestamp": "2025-12-12T05:47:29.045791+00:00",
        "meta_object_name": "FENGYUN 1C DEB",
        "meta_object_id": "1999-025XA",
        "meta_epoch": "2025-12-11T22:05:10.812192",
        "meta_mean_motion": 14.09545054,
        "meta_eccentricity": 0.01468282,
        "meta_inclination": 99.1484,
        "meta_ra_of_asc_node": 118.7878,
        "meta_arg_of_pericenter": 83.3789,
        "meta_mean_anomaly": 34.7834,
        "meta_ephemeris_type": 0,
        "meta_classification_type": "U",
        "meta_norad_cat_id": 30241,
        "meta_element_set_no": 999,
        "meta_rev_at_epoch": 96900,
        "meta_bstar": 0.00037305334,
        "meta_mean_motion_dot": 6.76e-06,
        "meta_mean_motion_ddot": 0,
        "tle_line1": "1 30241U 99025XA  25345.92026403  .00000676  00000+0  37305-3 0  9999",
        "tle_line2": "2 30241  99.1484 118.7878 0146828  83.3789  34.7834 14.09545054969004"
      },
      "geometry": {
        "type": "Point",
        "coordinates": [
          131.8516021406715,
          -53.838892025843336
        ]
      }
    },
    {
      "type": "Feature",
      "properties": {
        "norad_id": 30242,
        "name": "FENGYUN 1C DEB",
        "group": "fengyun-1c-debris",
        "lat": -46.257667117601066,
        "lon": -168.76546964993202,
        "alt_km": 848.0160281088774,
        "timestamp": "2025-12-12T05:47:29.045801+00:00",
        "meta_object_name": "FENGYUN 1C DEB",
        "meta_object_id": "1999-025XB",
        "meta_epoch": "2025-12-11T14:11:30.602688",
        "meta_mean_motion": 14.17633892,
        "meta_eccentricity": 0.00111425,
        "meta_inclination": 98.6834,
        "meta_ra_of_asc_node": 19.7878,
        "meta_arg_of_pericenter": 58.0778,
        "meta_mean_anomaly": 93.465,
        "meta_ephemeris_type": 0,
        "meta_classification_type": "U",
        "meta_norad_cat_id": 30242,
        "meta_element_set_no": 999,
        "meta_rev_at_epoch": 97410,
        "meta_bstar": 0.00084121233,
        "meta_mean_motion_dot": 1.669e-05,
        "meta_mean_motion_ddot": 0,
        "tle_line1": "1 30242U 99025XB  25345.59132642  .00001669  00000+0  84121-3 0  9997",
        "tle_line2": "2 30242  98.6834  19.7878 0011142  58.0778  93.4650 14.17633892974107"
      },
      "geometry": {
        "type": "Point",
        "coordinates": [
          -168.76546964993202,
          -46.257667117601066
        ]
      }
    }
  ]
}